HST                     
1 20580U 90037B   26205.16944587  .00006660  00000+0  20754-3 0  9991
2 20580  28.4719 187.7352 0001885 189.8128 170.2431 15.31135105794249
POLAR                   
1 23802U 96013A   26205.00845484  .00000228  00000+0  00000+0 0  9992
2 23802  79.9050 226.6142 6507374 207.8131  92.3130  1.29845983145337
SWAS                    
1 25560U 98071A   26205.25202171  .00004462  00000+0  28177-3 0  9991
2 25560  69.8957 131.9235 0007249 219.5250 140.5387 15.09797761502865
CXO                     
1 25867U 99040B   26206.40147406  .00000689  00000+0  00000+0 0  9993
2 25867  56.6765 115.6641 7773461 309.9148   0.5404  0.37796798 17465
XMM-NEWTON              
1 25989U 99066A   26207.24358605  .00000084  00000+0  00000+0 0  9993
2 25989  64.2780 282.4824 4663641  64.1910   0.0496  0.50127282 23206
TERRA                   
1 25994U 99068A   26205.27222531  .00000356  00000+0  81453-4 0  9998
2 25994  97.9435 253.3440 0003676 104.8827 319.5785 14.61129252415024
CLUSTER II-FM7 (SAMBA)  
1 26410U 00041A   26206.06296891  .00027982 -17735-4  00000+0 0  9990
2 26410 149.7691  57.6888 9095425 275.3504 359.4742  0.44881598 20489
CLUSTER II-FM8 (TANGO)  
1 26464U 00045B   26204.45555065  .00018617 -85750-5  00000+0 0  9993
2 26464 149.9706  58.6134 9097692 276.0928   2.0465  0.44435751 20476
ODIN                    
1 26702U 01007A   26205.10320685  .00797410  28551-3  18667-2 0  9997
2 26702  97.3700 248.8799 0004116 180.9768 179.1502 15.96994682395240
TIMED                   
1 26998U 01055B   26205.27338535  .00001218  00000+0  11393-3 0  9997
2 26998  74.0676 160.3424 0002404 290.4199  69.6727 14.95360938336366
CORIOLIS                
1 27640U 03001A   26205.26167992  .00000113  00000+0  73726-4 0  9993
2 27640  98.7140 211.5821 0015183 104.9742 255.3116 14.19953886219486
SORCE                   
1 27651U 03004A   26205.26267833  .00003167  00000+0  23593-3 0  9991
2 27651  39.9917  50.1167 0018472 315.0283  44.9015 15.03880315277480
MOST                    
1 27843U 03031D   26205.02871842  .00000058  00000+0  46735-4 0  9999
2 27843  98.7056 212.2419 0010552 140.8560 219.3382 14.21329058195940
SCISAT 1                
1 27858U 03036A   26205.16384916  .00000627  00000+0  84575-4 0  9992
2 27858  73.9300  97.8752 0006918 163.3294 196.8111 14.81487444236928
SWIFT                   
1 28485U 04047A   26205.28856160  .00076971  00000+0  54833-3 0  9998
2 28485  20.5515 257.9225 0002667 124.0008 236.0692 15.72063698192709
HINODE (SOLAR-B)        
1 29479U 06041A   26205.04417786  .00000608  00000+0  11262-3 0  9992
2 29479  98.0549 220.6538 0017796 166.4608 193.7078 14.68666768 60284
SHIJIAN-6 02A (SJ-6 02A)
1 29505U 06046A   26205.29025259  .00006705  00000+0  33951-3 0  9997
2 29505  97.6349 246.6406 0003681  45.1762 314.9770 15.17328308 77892
SHIJIAN-6 02B (SJ-6 02B)
1 29506U 06046B   26205.33440117  .00001185  00000+0  96387-4 0  9997
2 29506  97.7145 234.1621 0012380 302.6277  57.3752 15.01450562 76312
FGRST (GLAST)           
1 33053U 08029A   26204.63251475  .00003223  00000+0  11531-3 0  9993
2 33053  25.5831 311.3932 0008391  40.0851 320.0305 15.24111270  1256
SDO                     
1 36395U 10005A   26205.23547819 -.00000101  00000+0  00000+0 0  9997
2 36395  34.7257  85.7785 0001540  47.6832 151.1586  1.00277666 60431
CRYOSAT 2               
1 36508U 10013A   26205.29840748  .00000075  00000+0  17980-4 0  9994
2 36508  92.0352 286.3234 0002539  98.5595 261.5900 14.51900185863467
X-SAT                   
1 37389U 11015C   26205.29384593 -.00000080  00000+0 -16434-4 0  9997
2 37389  98.3539 180.5546 0012879 231.3587 128.6441 14.25215206792961
GCOM-W1 (SHIZUKU)       
1 38337U 12025A   26205.33055531  .00000442  00000+0  10822-3 0  9999
2 38337  98.2025 145.3244 0001276  81.4222  33.7559 14.57096693754446
NUSTAR                  
1 38358U 12031A   26205.33335648  .00022364  00000+0  13109-2 0  9996
2 38358   6.0268 115.4163 0008998 295.0995 173.5790 15.09104033  1307
NEOSSAT                 
1 39089U 13009D   26205.07354941  .00000158  00000+0  69305-4 0  9990
2 39089  98.4196  24.2326 0011912 132.5030 227.7164 14.35838085702031
BRITE-AUSTRIA           
1 39091U 13009F   26205.05380224  .00000166  00000+0  70862-4 0  9993
2 39091  98.4015  23.5809 0011188 126.4028 233.8192 14.36555275702347
IRIS                    
1 39197U 13033A   26205.26900791  .00001098  00000+0  13160-3 0  9999
2 39197  97.9317  44.4291 0023975 194.3727 165.6809 14.85951750705888
HISAKI (SPRINT-A)       
1 39253U 13049A   26205.24742017  .00000090  00000+0  33755-4 0  9996
2 39253  29.7219  31.5916 0136922 317.2174  41.7810 13.55547236636453
CASSIOPE                
1 39265U 13055A   26205.25708305  .00025240 -41584-6  27102-3 0  9991
2 39265  80.9134  21.5919 0281203 297.1096  60.1706 15.27755860673326
STSAT-3                 
1 39422U 13066G   26205.26553041  .00004345  00000+0  32769-3 0  9992
2 39422  97.6224 174.5567 0008677 268.3934  91.6297 15.02937633689770
